{"type": "FeatureCollection", "features": [{"type": "Feature", "properties": {"norad_id": 37846, "name": "GSAT0101 (GALILEO-PFM)", "group": "galileo", "lat": -36.679252856413314, "lon": -164.53848650392752, "alt_km": 23227.07354716398, "timestamp": "2025-12-21T11:31:43.118384+00:00", "meta": {"OBJECT_NAME": "GSAT0101 (GALILEO-PFM)", "OBJECT_ID": "2011-060A", "EPOCH": "2025-12-18T18:24:05.988672", "MEAN_MOTION": 1.70475824, "ECCENTRICITY": 0.000318, "INCLINATION": 57.0514, "RA_OF_ASC_NODE": 346.6564, "ARG_OF_PERICENTER": 319.1021, "MEAN_ANOMALY": 40.8874, "EPHEMERIS_TYPE": 0, "CLASSIFICATION_TYPE": "U", "NORAD_CAT_ID": 37846, "ELEMENT_SET_NO": 999, "REV_AT_EPOCH": 8804, "BSTAR": 0, "MEAN_MOTION_DOT": -7.5e-07, "MEAN_MOTION_DDOT": 0}, "tle": {"line1": "1 37846U 11060A   25352.76673598 -.00000075  00000+0  00000+0 0  9995", "line2": "2 37846  57.0514 346.6564 0003180 319.1021  40.8874  1.70475824 88044"}}, "geometry": {"type": "Point", "coordinates": [-164.53848650392752, -36.679252856413314]}}, {"type": "Feature", "properties": {"norad_id": 37847, "name": "GSAT0102 (GALILEO-FM2)", "group": "galileo", "lat": -57.02206675169269, "lon": -101.86497712821848, "alt_km": 23216.602434423003, "timestamp": "2025-12-21T11:31:43.118408+00:00", "meta": {"OBJECT_NAME": "GSAT0102 (GALILEO-FM2)", "OBJECT_ID": "2011-060B", "EPOCH": "2025-12-18T09:18:10.933920", "MEAN_MOTION": 1.7047603, "ECCENTRICITY": 0.0005099, "INCLINATION": 57.0522, "RA_OF_ASC_NODE": 346.6671, "ARG_OF_PERICENTER": 311.9548, "MEAN_ANOMALY": 220.8374, "EPHEMERIS_TYPE": 0, "CLASSIFICATION_TYPE": "U", "NORAD_CAT_ID": 37847, "ELEMENT_SET_NO": 999, "REV_AT_EPOCH": 8804, "BSTAR": 0, "MEAN_MOTION_DOT": -7.6e-07, "MEAN_MOTION_DDOT": 0}, "tle": {"line1": "1 37847U 11060B   25352.38762655 -.00000076  00000+0  00000+0 0  9998", "line2": "2 37847  57.0522 346.6671 0005099 311.9548 220.8374  1.70476030 88043"}}, "geometry": {"type": "Point", "coordinates": [-101.86497712821848, -57.02206675169269]}}, {"type": "Feature", "properties": {"norad_id": 38857, "name": "GSAT0103 (GALILEO-FM3)", "group": "galileo", "lat": -17.024233014053376, "lon": -61.530004833430255, "alt_km": 23221.54500715809, "timestamp": "2025-12-21T11:31:43.118424+00:00", "meta": {"OBJECT_NAME": "GSAT0103 (GALILEO-FM3)", "OBJECT_ID": "2012-055A", "EPOCH": "2025-12-18T05:17:11.481792", "MEAN_MOTION": 1.70473412, "ECCENTRICITY": 0.00028558, "INCLINATION": 55.6954, "RA_OF_ASC_NODE": 106.5161, "ARG_OF_PERICENTER": 269.0808, "MEAN_ANOMALY": 90.8455, "EPHEMERIS_TYPE": 0, "CLASSIFICATION_TYPE": "U", "NORAD_CAT_ID": 38857, "ELEMENT_SET_NO": 999, "REV_AT_EPOCH": 8192, "BSTAR": 0, "MEAN_MOTION_DOT": -7e-08, "MEAN_MOTION_DDOT": 0}, "tle": {"line1": "1 38857U 12055A   25352.22027178 -.00000007  00000+0  00000+0 0  9996", "line2": "2 38857  55.6954 106.5161 0002855 269.0808  90.8455  1.70473412 81920"}}, "geometry": {"type": "Point", "coordinates": [-61.530004833430255, -17.024233014053376]}}, {"type": "Feature", "properties": {"norad_id": 40128, "name": "GSAT0201 (GALILEO 5)", "group": "galileo", "lat": -25.66729625986665, "lon": -103.90955393532889, "alt_km": 25509.77358630331, "timestamp": "2025-12-21T11:31:43.118438+00:00", "meta": {"OBJECT_NAME": "GSAT0201 (GALILEO 5)", "OBJECT_ID": "2014-050A", "EPOCH": "2025-12-21T00:18:08.004960", "MEAN_MOTION": 1.85519694, "ECCENTRICITY": 0.1648746, "INCLINATION": 49.0672, "RA_OF_ASC_NODE": 280.7264, "ARG_OF_PERICENTER": 172.5923, "MEAN_ANOMALY": 190.2386, "EPHEMERIS_TYPE": 0, "CLASSIFICATION_TYPE": "U", "NORAD_CAT_ID": 40128, "ELEMENT_SET_NO": 999, "REV_AT_EPOCH": 7501, "BSTAR": 0, "MEAN_MOTION_DOT": -4.1e-07, "MEAN_MOTION_DDOT": 0}, "tle": {"line1": "1 40128U 14050A   25355.01259265 -.00000041  00000+0  00000+0 0  9999", "line2": "2 40128  49.0672 280.7264 1648746 172.5923 190.2386  1.85519694 75019"}}, "geometry": {"type": "Point", "coordinates": [-103.90955393532889, -25.66729625986665]}}, {"type": "Feature", "properties": {"norad_id": 40129, "name": "GSAT0202 (GALILEO 6)", "group": "galileo", "lat": 33.81943522411615, "lon": 64.32163387993992, "alt_km": 17803.367035718722, "timestamp": "2025-12-21T11:31:43.118452+00:00", "meta": {"OBJECT_NAME": "GSAT0202 (GALILEO 6)", "OBJECT_ID": "2014-050B", "EPOCH": "2025-12-18T13:46:22.484640", "MEAN_MOTION": 1.85520466, "ECCENTRICITY": 0.16491259, "INCLINATION": 49.0858, "RA_OF_ASC_NODE": 279.9095, "ARG_OF_PERICENTER": 173.2442, "MEAN_ANOMALY": 189.3393, "EPHEMERIS_TYPE": 0, "CLASSIFICATION_TYPE": "U", "NORAD_CAT_ID": 40129, "ELEMENT_SET_NO": 999, "REV_AT_EPOCH": 7713, "BSTAR": 0, "MEAN_MOTION_DOT": -5.9e-07, "MEAN_MOTION_DDOT": 0}, "tle": {"line1": "1 40129U 14050B   25352.57387135 -.00000059  00000+0  00000+0 0  9995", "line2": "2 40129  49.0858 279.9095 1649125 173.2442 189.3393  1.85520466 77135"}}, "geometry": {"type": "Point", "coordinates": [64.32163387993992, 33.81943522411615]}}, {"type": "Feature", "properties": {"norad_id": 40544, "name": "GSAT0203 (GALILEO 7)", "group": "galileo", "lat": 1.3490723571871435, "lon": -12.686512028377793, "alt_km": 23221.209966538972, "timestamp": "2025-12-21T11:31:43.118464+00:00", "meta": {"OBJECT_NAME": "GSAT0203 (GALILEO 7)", "OBJECT_ID": "2015-017A", "EPOCH": "2025-12-20T07:18:34.773696", "MEAN_MOTION": 1.70475998, "ECCENTRICITY": 0.00064692, "INCLINATION": 56.8445, "RA_OF_ASC_NODE": 346.4738, "ARG_OF_PERICENTER": 274.1452, "MEAN_ANOMALY": 85.7909, "EPHEMERIS_TYPE": 0, "CLASSIFICATION_TYPE": "U", "NORAD_CAT_ID": 40544, "ELEMENT_SET_NO": 999, "REV_AT_EPOCH": 6615, "BSTAR": 0, "MEAN_MOTION_DOT": -7.1e-07, "MEAN_MOTION_DDOT": 0}, "tle": {"line1": "1 40544U 15017A   25354.30456914 -.00000071  00000+0  00000+0 0  9999", "line2": "2 40544  56.8445 346.4738 0006469 274.1452  85.7909  1.70475998 66152"}}, "geometry": {"type": "Point", "coordinates": [-12.686512028377793, 1.3490723571871435]}}, {"type": "Feature", "properties": {"norad_id": 40545, "name": "GSAT0204 (GALILEO 8)", "group": "galileo", "lat": -20.495462107554314, "lon": -179.41030294904863, "alt_km": 23216.247483789783, "timestamp": "2025-12-21T11:31:43.118477+00:00", "meta": {"OBJECT_NAME": "GSAT0204 (GALILEO 8)", "OBJECT_ID": "2015-017B", "EPOCH": "2025-12-20T13:26:28.826304", "MEAN_MOTION": 1.70475697, "ECCENTRICITY": 0.0006133, "INCLINATION": 56.8522, "RA_OF_ASC_NODE": 346.4847, "ARG_OF_PERICENTER": 266.5447, "MEAN_ANOMALY": 93.3948, "EPHEMERIS_TYPE": 0, "CLASSIFICATION_TYPE": "U", "NORAD_CAT_ID": 40545, "ELEMENT_SET_NO": 999, "REV_AT_EPOCH": 2920, "BSTAR": 0, "MEAN_MOTION_DOT": -7e-07, "MEAN_MOTION_DDOT": 0}, "tle": {"line1": "1 40545U 15017B   25354.56005586 -.00000070  00000+0  00000+0 0  9992", "line2": "2 40545  56.8522 346.4847 0006133 266.5447  93.3948  1.70475697 29206"}}, "geometry": {"type": "Point", "coordinates": [-179.41030294904863, -20.495462107554314]}}, {"type": "Feature", "properties": {"norad_id": 40889, "name": "GSAT0205 (GALILEO 9)", "group": "galileo", "lat": -10.757725631127022, "lon": -141.11394710758114, "alt_km": 23213.326691542847, "timestamp": "2025-12-21T11:31:43.118491+00:00", "meta": {"OBJECT_NAME": "GSAT0205 (GALILEO 9)", "OBJECT_ID": "2015-045A", "EPOCH": "2025-12-20T21:57:55.200672", "MEAN_MOTION": 1.70473188, "ECCENTRICITY": 0.0006095, "INCLINATION": 55.0008, "RA_OF_ASC_NODE": 226.5322, "ARG_OF_PERICENTER": 41.0262, "MEAN_ANOMALY": 319.1287, "EPHEMERIS_TYPE": 0, "CLASSIFICATION_TYPE": "U", "NORAD_CAT_ID": 40889, "ELEMENT_SET_NO": 999, "REV_AT_EPOCH": 6397, "BSTAR": 0, "MEAN_MOTION_DOT": 7.2e-07, "MEAN_MOTION_DDOT": 0}, "tle": {"line1": "1 40889U 15045A   25354.91522223  .00000072  00000+0  00000+0 0  9996", "line2": "2 40889  55.0008 226.5322 0006095  41.0262 319.1287  1.70473188 63971"}}, "geometry": {"type": "Point", "coordinates": [-141.11394710758114, -10.757725631127022]}}, {"type": "Feature", "properties": {"norad_id": 40890, "name": "GSAT0206 (GALILEO 10)", "group": "galileo", "lat": -25.3423572011058, "lon": 65.8992970715921, "alt_km": 23237.874075909174, "timestamp": "2025-12-21T11:31:43.118508+00:00", "meta": {"OBJECT_NAME": "GSAT0206 (GALILEO 10)", "OBJECT_ID": "2015-045B", "EPOCH": "2025-12-18T18:56:55.411008", "MEAN_MOTION": 1.70473154, "ECCENTRICITY": 0.00042207, "INCLINATION": 55.0004, "RA_OF_ASC_NODE": 226.586, "ARG_OF_PERICENTER": 42.9195, "MEAN_ANOMALY": 317.2206, "EPHEMERIS_TYPE": 0, "CLASSIFICATION_TYPE": "U", "NORAD_CAT_ID": 40890, "ELEMENT_SET_NO": 999, "REV_AT_EPOCH": 6396, "BSTAR": 0, "MEAN_MOTION_DOT": 6.4e-07, "MEAN_MOTION_DDOT": 0}, "tle": {"line1": "1 40890U 15045B   25352.78953022  .00000064  00000+0  00000+0 0  9997", "line2": "2 40890  55.0004 226.5860 0004220  42.9195 317.2206  1.70473154 63961"}}, "geometry": {"type": "Point", "coordinates": [65.8992970715921, -25.3423572011058]}}, {"type": "Feature", "properties": {"norad_id": 41174, "name": "GSAT0209 (GALILEO 12)", "group": "galileo", "lat": 51.67014557771606, "lon": -133.35525223536035, "alt_km": 23219.87415350137, "timestamp": "2025-12-21T11:31:43.118520+00:00", "meta": {"OBJECT_NAME": "GSAT0209 (GALILEO 12)", "OBJECT_ID": "2015-079A", "EPOCH": "2025-12-20T17:12:54.927360", "MEAN_MOTION": 1.70474584, "ECCENTRICITY": 0.00024263, "INCLINATION": 55.7172, "RA_OF_ASC_NODE": 106.1622, "ARG_OF_PERICENTER": 346.435, "MEAN_ANOMALY": 13.5264, "EPHEMERIS_TYPE": 0, "CLASSIFICATION_TYPE": "U", "NORAD_CAT_ID": 41174, "ELEMENT_SET_NO": 999, "REV_AT_EPOCH": 6173, "BSTAR": 0, "MEAN_MOTION_DOT": 0, "MEAN_MOTION_DDOT": 0}, "tle": {"line1": "1 41174U 15079A   25354.71730240  .00000000  00000+0  00000+0 0  9990", "line2": "2 41174  55.7172 106.1622 0002426 346.4350  13.5264  1.70474584 61731"}}, "geometry": {"type": "Point", "coordinates": [-133.35525223536035, 51.67014557771606]}}]}